[{"OBJECT_NAME":"STARLINK-2219","OBJECT_ID":"2021-041S","EPOCH":"2026-03-09T11:13:09.698304","MEAN_MOTION":15.3021781,"ECCENTRICITY":0.0001494,"INCLINATION":53.1592,"RA_OF_ASC_NODE":127.7423,"ARG_OF_PERICENTER":99.2629,"MEAN_ANOMALY":260.8541,"EPHEMERIS_TYPE":0,"CLASSIFICATION_TYPE":"U","NORAD_CAT_ID":48569,"ELEMENT_SET_NO":999,"REV_AT_EPOCH":26524,"BSTAR":0.00029927791,"MEAN_MOTION_DOT":8.52e-5,"MEAN_MOTION_DDOT":0},{"OBJECT_NAME":"TIANMU-1 19","OBJECT_ID":"2023-208A","EPOCH":"2026-03-09T22:13:36.801696","MEAN_MOTION":15.2984143,"ECCENTRICITY":0.00039292,"INCLINATION":97.4383,"RA_OF_ASC_NODE":184.9132,"ARG_OF_PERICENTER":316.2611,"MEAN_ANOMALY":43.8317,"EPHEMERIS_TYPE":0,"CLASSIFICATION_TYPE":"U","NORAD_CAT_ID":58660,"ELEMENT_SET_NO":999,"REV_AT_EPOCH":12214,"BSTAR":0.00040995676,"MEAN_MOTION_DOT":0.00011779,"MEAN_MOTION_DDOT":0}]
